COSMOS 2278 R/B         
1 23088U 94023B   02191.14747231  .00000327  00000-0  19598-3 0  8706
2 23088  70.9981 210.0441 0002073 131.0647 229.0654 14.14293272424039
RESURS O1 R/B           
1 23343U 94074B   02190.95987647  .00000462  00000-0  78100-4 0  7570
2 23343  97.7304 195.1384 0006497 318.0642  42.0066 14.73689641412372
COSMOS 2297 R/B         
1 23405U 94077B   02190.94403766 -.00000029  00000-0  10000-4 0   103
2 23405  70.9798 162.6825 0003687 291.0078  69.0819 14.14711218393713
ERS 2                   
1 23560U 95021A   02190.73252441 -.00000822  00000-0 -28861-3 0  7645
2 23560  98.5476 264.6291 0000297 174.5540 185.5646 14.32243520377425
ARIANE 4 R/B            
1 23561U 95021B   02191.54977969  .00000274  00000-0  10953-3 0  6646
2 23561  98.1755 204.8599 0006244 327.1411  32.9387 14.35445134377942
SL-16 R/B               
1 23705U 95058B   02190.85375506  .00000196  00000-0  12630-3 0  8276
2 23705  71.0196 312.5099 0013667 325.5608  34.4624 14.14663997345414
SL-16 R/B               
1 24298U 96051B   02190.96370544 -.00000048  00000-0  00000-0 0  5782
2 24298  70.9150  19.6814 0014397  47.8375 312.3949 14.12382974301406
ORBVIEW 2 (SEASTAR)     
1 24883U 97037A   02191.57423639  .00000380  00000-0  91218-4 0  8516
2 24883  98.2192 289.7756 0001951 137.9044 222.2305 14.58753208262836
SL-16 R/B               
1 25400U 98043G   02190.74302263  .00000048  00000-0  39384-4 0  5454
2 25400  98.6578 271.1984 0010762  70.6247 289.6093 14.24808269207910
SL-16 R/B               
1 25407U 98045B   02190.91073035 -.00000048  00000-0  00000-0 0  5375
2 25407  71.0092 343.2643 0009480 248.2108 111.8006 14.15296665204064
ISS (ZARYA)             
1 25544U 98067A   02191.75425257  .00049735  00000-0  63162-3 0  6491
2 25544  51.6373 294.6707 0008083 341.5726 177.2489 15.58869389207705
SL-08 R/B               
1 25723U 99022C   02190.92539589  .00002387  00000-0  17161-3 0  5011
2 25723  48.4404 151.2006 0030356 172.4446 187.6939 15.07553584175385
CSL-04 R/B              
1 25732U 99025C   02191.14409617  .00000046  00000-0  44054-4 0  4366
2 25732  98.5974 223.6215 0036748 258.5437 101.1607 14.16846469163810
OKEAN O                 
1 25860U 99039A   02191.52501286  .00000544  00000-0  94097-4 0  9382
2 25860  97.8956 240.8763 0002157  69.3260 290.8180 14.72102365160116
SL-16 R/B               
1 25861U 99039B   02190.69580782  .00000420  00000-0  68602-4 0  3131
2 25861  97.8944 245.7290 0017429  92.5954 267.7247 14.75737581160371
DELTA R/B(1)            
1 25887U 99043E   02191.53905087  .00094232  12777-4  47833-3 0  8990
2 25887  52.2398  25.8833 0176094 258.7684  99.3480 15.62272184155481
CORONAS F               
1 26873U 01032A   02190.65603751  .00010863  00000-0  34704-3 0  3697
2 26873  82.4807 110.9560 0027297 128.5734 231.7962 15.31942515 52346
SL-14 R/B               
1 26874U 01032B   02190.80872051  .00003273  00000-0  12872-3 0  1952
2 26874  82.4845 112.5631 0030607 135.3755 224.9884 15.24838525 52258
STARSHINE 3             
1 26929U 01043A   02191.03475448  .00030593  00000-0  44459-3 0  3470
2 26929  67.0452 327.1378 0012915 243.2080 116.7694 15.55570489 43642
COSMOS 2387             
1 27382U 02008A   02177.79512251  .00906637  59051-5  27634-3 0  4997
2 27382  67.0907 356.4660 0097418  69.3368   5.2899 16.15131220 19417
ENVISAT                 
1 27386U 02009A   02191.20179489 -.00000399  00000-0 -13202-3 0  3998
2 27386  98.5466 257.9698 0000823 111.2607 248.8663 14.32242390 18773
